INTELSAT 35E (IS-35E)   
1 42818U 17041A   26165.68187281  .00000000  00000+0  00000+0 0  9995
2 42818   0.0256  11.6725 0001533  69.5322  32.7564  1.00268183 32796
COSMOS 2520             
1 42907U 17046A   26165.91152602  .00000142  00000+0  00000+0 0  9991
2 42907   0.0492  86.3469 0001203  36.5461 153.4587  1.00270588 32375
TDRS 13                 
1 42915U 17047A   26166.25676122 -.00000098  00000+0  00000+0 0  9998
2 42915   3.4512   2.6899 0014416 106.3462 235.5048  1.00271396 32326
QZS-3 (MICHIBIKI-3)     
1 42917U 17048A   26166.28414800  .00000000  00000+0  00000+0 0  9999
2 42917   0.0282 153.3322 0002436 299.6015  39.8619  1.00263643 32245
AMAZONAS 5              
1 42934U 17053A   26166.27516874 -.00000279  00000+0  00000+0 0  9996
2 42934   0.0324 325.9680 0002053  64.3113 271.3400  1.00269120 32029
ASIASAT 9               
1 42942U 17057A   26166.28319466  .00000000  00000+0  00000+0 0  9999
2 42942   0.0417  46.9682 0002460  30.3951  50.3084  1.00263846 31849
INTELSAT 37E (IS-37E)   
1 42950U 17059A   26166.25546120 -.00000137  00000+0  00000+0 0  9998
2 42950   0.0193  23.2812 0002341  83.3053 230.9357  1.00271828 32042
BSAT-4A                 
1 42951U 17059B   26165.81711391 -.00000344  00000+0  00000+0 0  9994
2 42951   0.0440  28.2570 0003862  39.4526 239.3850  1.00269277 31775
QZS-4 (MICHIBIKI-4)     
1 42965U 17062A   26165.35787891 -.00000335  00000+0  00000+0 0  9990
2 42965  40.1096 343.5183 0745249 271.7117 273.4729  1.00251032 31778
SES-11 (ECHOSTAR 105)   
1 42967U 17063A   26166.23824545 -.00000085  00000+0  00000+0 0  9991
2 42967   0.0185 329.1294 0002714  99.2262 175.9940  1.00270613 31704
KOREASAT 5A             
1 42984U 17067A   26166.11294562 -.00000354  00000+0  00000+0 0  9990
2 42984   0.0110  12.2875 0000545  78.5882 326.3402  1.00271739 31507
ALCOMSAT 1              
1 43039U 17078A   26166.18280155 -.00000182  00000+0  00000+0 0  9993
2 43039   0.0374 265.9097 0002226 166.5951 231.9786  1.00269564 31270
SBIRS GEO-3 (USA 282)   
1 43162U 18009A   26166.15623252  .00000131  00000+0  00000+0 0  9994
2 43162   2.1828  12.0065 0001789  64.7553  83.5275  1.00271642 30824
AL YAH 3                
1 43174U 18012A   26166.25502787 -.00000153  00000+0  00000+0 0  9996
2 43174   1.5470  83.1292 0003855 359.9003 252.2119  1.00269997 30821
SES-14                  
1 43175U 18012B   26166.24965451 -.00000275  00000+0  00000+0 0  9992
2 43175   0.0182  22.6520 0000790  57.1164 226.1433  1.00270510  7004
GOES 17                 
1 43226U 18022A   26166.24127880 -.00000179  00000+0  00000+0 0  9999
2 43226   0.9325  85.7463 0000402  33.5049 141.6365  1.00269965 30402
HISPASAT 30W-6          
1 43228U 18023A   26166.25312120 -.00000213  00000+0  00000+0 0  9995
2 43228   0.0458  41.7245 0005659  28.0271 254.9104  1.00270191 30386
SUPERBIRD-B3            
1 43271U 18033A   26166.31041696 -.00000089  00000+0  00000+0 0  9999
2 43271   0.0099 323.1781 0000897 111.1385 103.0343  1.00271434 30049
HYLAS 4                 
1 43272U 18033B   26166.03854958 -.00000229  00000+0  00000+0 0  9998
2 43272   0.0164  19.3128 0000824  66.7769 157.6198  1.00269493 30048
IRNSS-1I                
1 43286U 18035A   26165.84199394  .00000064  00000+0  00000+0 0  9995
2 43286  28.7494  74.2326 0017858 181.5121   5.3509  1.00271722 30053
USA 283                 
1 43339U 18036A   26163.71911426  .00000000  00000+0  00000+0 0  9997
2 43339   0.0199 335.2360 0000436 187.5113 131.2828  1.00273175 25248
COSMOS 2526             
1 43432U 18037A   26166.28440800 -.00000341  00000+0  00000+0 0  9999
2 43432   0.0281  33.0148 0000684 175.0713 285.9381  1.00271216 29940
APSTAR-6C               
1 43450U 18041A   26166.01219436 -.00000313  00000+0  00000+0 0  9993
2 43450   0.0241   1.9549 0001011 337.9819  61.7660  1.00269767 29786
BANGABANDHUSAT-1        
1 43463U 18044A   26166.28258800 -.00000359  00000+0  00000+0 0  9997
2 43463   0.0167  64.3990 0001595  15.8262  44.1778  1.00270706 29691
SES-12                  
1 43488U 18049A   26166.04677894 -.00000264  00000+0  00000+0 0  9996
2 43488   0.0154  12.7022 0001194 289.5511  72.9334  1.00267586 29395
FENGYUN 2H              
1 43491U 18050A   26165.98963010 -.00000127  00000+0  00000+0 0  9990
2 43491   3.0244  79.0976 0001961 137.5346 122.3352  1.00269792 29410
BEIDOU-2 IGSO-7         
1 43539U 18057A   26165.92400608 -.00000011  00000+0  00000+0 0  9995
2 43539  55.1939 163.0777 0105015 237.9971 304.9149  1.00251741 29102
TELSTAR 19V             
1 43562U 18059A   26166.24653450 -.00000276  00000+0  00000+0 0  9997
2 43562   0.0197 163.3787 0002418 312.0896 173.8125  1.00269701 29125
TELKOM 4 (MERAH PUTIH)  
1 43587U 18064A   26166.28033465 -.00000340  00000+0  00000+0 0  9994
2 43587   0.0197  66.5028 0001225  48.8212 357.1595  1.00270117 28866
TELSTAR 18V             
1 43611U 18069A   26165.78730205 -.00000288  00000+0  00000+0 0  9998
2 43611   0.0122 311.2047 0001612 128.7151 244.5797  1.00270067 28613
AZERSPACE 2 (IS-38)     
1 43632U 18074A   26166.19666829  .00000141  00000+0  00000+0 0  9990
2 43632   0.0007   2.4382 0001185  78.7447 298.2132  1.00269716 28423
