OBJECT_NAME,OBJECT_ID,EPOCH,MEAN_MOTION,ECCENTRICITY,INCLINATION,RA_OF_ASC_NODE,ARG_OF_PERICENTER,MEAN_ANOMALY,EPHEMERIS_TYPE,CLASSIFICATION_TYPE,NORAD_CAT_ID,ELEMENT_SET_NO,REV_AT_EPOCH,BSTAR,MEAN_MOTION_DOT,MEAN_MOTION_DDOT
INTELSAT 35E (IS-35E),2017-041A,2026-06-14T16:21:53.810784,1.00268183,.00015334,0.0256,11.6725,69.5322,32.7564,0,U,42818,999,3279,0,0,0
COSMOS 2520,2017-046A,2026-06-14T21:52:35.848128,1.00270588,.00012035,0.0492,86.3469,36.5461,153.4587,0,U,42907,999,3237,0,.142E-5,0
TDRS 13,2017-047A,2026-06-15T06:09:44.169408,1.00271396,.00144166,3.4512,2.6899,106.3462,235.5048,0,U,42915,999,3232,0,-.98E-6,0
QZS-3 (MICHIBIKI-3),2017-048A,2026-06-15T06:49:10.387200,1.00263643,.00024361,0.0282,153.3322,299.6015,39.8619,0,U,42917,999,3224,0,0,0
AMAZONAS 5,2017-053A,2026-06-15T06:36:14.579136,1.00269120,.00020538,0.0324,325.9680,64.3113,271.3400,0,U,42934,999,3202,0,-.279E-5,0
ASIASAT 9,2017-057A,2026-06-15T06:47:48.018624,1.00263846,.00024606,0.0417,46.9682,30.3951,50.3084,0,U,42942,999,3184,0,0,0
INTELSAT 37E (IS-37E),2017-059A,2026-06-15T06:07:51.847680,1.00271828,.00023415,0.0193,23.2812,83.3053,230.9357,0,U,42950,999,3204,0,-.137E-5,0
BSAT-4A,2017-059B,2026-06-14T19:36:38.641824,1.00269277,.00038622,0.0440,28.2570,39.4526,239.3850,0,U,42951,999,3177,0,-.344E-5,0
QZS-4 (MICHIBIKI-4),2017-062A,2026-06-14T08:35:20.737824,1.00251032,.07452491,40.1096,343.5183,271.7117,273.4729,0,U,42965,999,3177,0,-.335E-5,0
SES-11 (ECHOSTAR 105),2017-063A,2026-06-15T05:43:04.406880,1.00270613,.00027141,0.0185,329.1294,99.2262,175.9940,0,U,42967,999,3170,0,-.85E-6,0
KOREASAT 5A,2017-067A,2026-06-15T02:42:38.501568,1.00271739,.00005458,0.0110,12.2875,78.5882,326.3402,0,U,42984,999,3150,0,-.354E-5,0
ALCOMSAT 1,2017-078A,2026-06-15T04:23:14.053920,1.00269564,.00022261,0.0374,265.9097,166.5951,231.9786,0,U,43039,999,3127,0,-.182E-5,0
SBIRS GEO-3 (USA 282),2018-009A,2026-06-15T03:44:58.489728,1.00271642,.00017897,2.1828,12.0065,64.7553,83.5275,0,U,43162,999,3082,0,.131E-5,0
AL YAH 3,2018-012A,2026-06-15T06:07:14.407968,1.00269997,.0003855,1.5470,83.1292,359.9003,252.2119,0,U,43174,999,3082,0,-.153E-5,0
SES-14,2018-012B,2026-06-15T05:59:30.149664,1.00270510,.00007902,0.0182,22.6520,57.1164,226.1433,0,U,43175,999,700,0,-.275E-5,0
GOES 17,2018-022A,2026-06-15T05:47:26.488320,1.00269965,.00004022,0.9325,85.7463,33.5049,141.6365,0,U,43226,999,3040,0,-.179E-5,0
HISPASAT 30W-6,2018-023A,2026-06-15T06:04:29.671680,1.00270191,.00056597,0.0458,41.7245,28.0271,254.9104,0,U,43228,999,3038,0,-.213E-5,0
SUPERBIRD-B3,2018-033A,2026-06-15T07:27:00.025344,1.00271434,.00008977,0.0099,323.1781,111.1385,103.0343,0,U,43271,999,3004,0,-.89E-6,0
HYLAS 4,2018-033B,2026-06-15T00:55:30.683712,1.00269493,.00008243,0.0164,19.3128,66.7769,157.6198,0,U,43272,999,3004,0,-.229E-5,0
IRNSS-1I,2018-035A,2026-06-14T20:12:28.276416,1.00271722,.00178583,28.7494,74.2326,181.5121,5.3509,0,U,43286,999,3005,0,.64E-6,0
USA 283,2018-036A,2026-06-12T17:15:31.472064,1.00273175,.0000436,0.0199,335.2360,187.5113,131.2828,0,U,43339,999,2524,0,0,0
COSMOS 2526,2018-037A,2026-06-15T06:49:32.851200,1.00271216,.00006849,0.0281,33.0148,175.0713,285.9381,0,U,43432,999,2994,0,-.341E-5,0
APSTAR-6C,2018-041A,2026-06-15T00:17:33.592704,1.00269767,.0001011,0.0241,1.9549,337.9819,61.7660,0,U,43450,999,2978,0,-.313E-5,0
BANGABANDHUSAT-1,2018-044A,2026-06-15T06:46:55.603200,1.00270706,.00015951,0.0167,64.3990,15.8262,44.1778,0,U,43463,999,2969,0,-.359E-5,0
SES-12,2018-049A,2026-06-15T01:07:21.700416,1.00267586,.00011946,0.0154,12.7022,289.5511,72.9334,0,U,43488,999,2939,0,-.264E-5,0
FENGYUN 2H,2018-050A,2026-06-14T23:45:04.040640,1.00269792,.00019619,3.0244,79.0976,137.5346,122.3352,0,U,43491,999,2941,0,-.127E-5,0
BEIDOU-2 IGSO-7,2018-057A,2026-06-14T22:10:34.125312,1.00251741,.0105015,55.1939,163.0777,237.9971,304.9149,0,U,43539,999,2910,0,-.11E-6,0
TELSTAR 19V,2018-059A,2026-06-15T05:55:00.580800,1.00269701,.00024184,0.0197,163.3787,312.0896,173.8125,0,U,43562,999,2912,0,-.276E-5,0
TELKOM 4 (MERAH PUTIH),2018-064A,2026-06-15T06:43:40.913760,1.00270117,.00012255,0.0197,66.5028,48.8212,357.1595,0,U,43587,999,2886,0,-.34E-5,0
TELSTAR 18V,2018-069A,2026-06-14T18:53:42.897120,1.00270067,.00016127,0.0122,311.2047,128.7151,244.5797,0,U,43611,999,2861,0,-.288E-5,0
AZERSPACE 2 (IS-38),2018-074A,2026-06-15T04:43:12.140256,1.00269716,.00011853,0.0007,2.4382,78.7447,298.2132,0,U,43632,999,2842,0,.141E-5,0
